NORAD_CAT_ID,OBJECT_NAME,OBJECT_TYPE,EPOCH,MEAN_MOTION,ECCENTRICITY,INCLINATION,RA_OF_ASC_NODE,ARG_OF_PERICENTER,MEAN_ANOMALY,BSTAR,MEAN_MOTION_DOT,MEAN_MOTION_DDOT,TLE_LINE0,TLE_LINE1,TLE_LINE2,SEMIMAJOR_AXIS,PERIOD,APOGEE,PERIGEE,DECAYED
49735.0,STARLINK-3113,PAYLOAD,2023-08-21 17:04:27,15.08845511,9.37e-05,53.2182,18.4145,81.3871,278.7227,9.607e-05,1.242e-05,0.0,0 STARLINK-3113,1 49735U 21115M   23233.71143079  .00001242  00000-0  96070-4 0  9998,2 49735  53.2182  18.4145 0000937  81.3871 278.7227 15.08845511 95952,6917.864,95.437,540.377,539.08,0.0
49735.0,STARLINK-3113,PAYLOAD,2023-08-23 11:59:53,15.08829895,9.21e-05,53.219,10.3873,80.3311,279.7785,0.00015151,2.124e-05,0.0,0 STARLINK-3113,1 49735U 21115M   23235.49992109  .00002124  00000-0  15151-3 0  9991,2 49735  53.2190  10.3873 0000921  80.3311 279.7785 15.08829895 96229,6917.911,95.438,540.413,539.139,0.0
49735.0,STARLINK-3113,PAYLOAD,2023-08-24 19:47:35,15.08858678,0.0001034,53.2174,4.4397,73.6315,286.4791,0.00069219,0.00010751,0.0,0 STARLINK-3113,1 49735U 21115M   23236.82471296  .00010751  00000-0  69219-3 0  9997,2 49735  53.2174   4.4397 0001034  73.6315 286.4791 15.08858678 95313,6917.823,95.436,540.404,538.973,0.0
49735.0,STARLINK-3113,PAYLOAD,2023-08-25 10:06:03,15.08846436,0.0001201,53.2175,1.7636,87.92,272.193,0.00039675,6.033e-05,0.0,0 STARLINK-3113,1 49735U 21115M   23237.42087654  .00006033  00000-0  39675-3 0  9996,2 49735  53.2175   1.7636 0001201  87.9200 272.1930 15.08846436 96516,6917.861,95.437,540.557,538.895,0.0
49735.0,STARLINK-3113,PAYLOAD,2023-08-25 13:16:50,15.0884623,0.0001136,53.2176,1.1691,71.4465,288.6651,0.00046143,7.065e-05,0.0,0 STARLINK-3113,1 49735U 21115M   23237.55335703  .00007065  00000-0  46143-3 0  9995,2 49735  53.2176   1.1691 0001136  71.4465 288.6651 15.08846230 95423,6917.861,95.437,540.512,538.94,0.0
49735.0,STARLINK-3113,PAYLOAD,2023-08-25 19:38:22,15.08856787,0.0001133,53.2176,359.979,75.2984,284.8134,0.00072129,0.00011215,0.0,0 STARLINK-3113,1 49735U 21115M   23237.81831373  .00011215  00000-0  72129-3 0  9993,2 49735  53.2176 359.9790 0001133  75.2984 284.8134 15.08856787 95468,6917.829,95.436,540.478,538.91,0.0
49735.0,STARLINK-3113,PAYLOAD,2023-08-26 08:21:27,15.08838449,0.0001058,53.2178,357.5994,87.4787,272.6326,0.000237,3.486e-05,0.0,0 STARLINK-3113,1 49735U 21115M   23238.34823808  .00003486  00000-0  23700-3 0  9998,2 49735  53.2178 357.5994 0001058  87.4787 272.6326 15.08838449 96657,6917.885,95.438,540.482,539.018,0.0
49735.0,STARLINK-3113,PAYLOAD,2023-08-26 11:32:14,15.08843605,0.0001148,53.2179,357.0055,78.4267,281.6854,0.00062695,9.705e-05,0.0,0 STARLINK-3113,1 49735U 21115M   23238.48071846  .00009705  00000-0  62695-3 0  9996,2 49735  53.2179 357.0055 0001148  78.4267 281.6854 15.08843605 95569,6917.869,95.437,540.529,538.94,0.0
49735.0,STARLINK-3113,PAYLOAD,2023-08-26 19:29:09,15.08854786,0.0001177,53.2181,355.5184,78.6401,281.4723,0.00089405,0.00013975,0.0,0 STARLINK-3113,1 49735U 21115M   23238.81191640  .00013975  00000-0  89405-3 0  9990,2 49735  53.2181 355.5184 0001177  78.6401 281.4723 15.08854786 95613,6917.835,95.437,540.514,538.886,0.0
49735.0,STARLINK-3113,PAYLOAD,2023-08-27 08:12:14,15.08851144,0.0002187,53.218,353.1397,71.0367,289.0862,0.00097717,0.00015303,0.0,0 STARLINK-3113,1 49735U 21115M   23239.34183926  .00015303  00000-0  97717-3 0  9999,2 49735  53.2180 353.1397 0002187  71.0367 289.0862 15.08851144 96807,6917.846,95.437,541.224,538.198,0.0
49735.0,STARLINK-3113,PAYLOAD,2023-08-27 12:58:24,15.08856204,0.0001181,53.2181,352.2477,82.2236,277.889,0.0011987,0.00018849,0.0,0 STARLINK-3113,1 49735U 21115M   23239.54055595  .00018849  00000-0  11987-2 0  9993,2 49735  53.2181 352.2477 0001181  82.2236 277.8890 15.08856204 95727,6917.831,95.437,540.513,538.879,0.0
49735.0,STARLINK-3113,PAYLOAD,2023-08-28 09:38:24,15.08848019,0.0001156,53.2177,348.3809,111.8477,248.2638,0.00076404,0.00011895,0.0,0 STARLINK-3113,1 49735U 21115M   23240.40167804  .00011895  00000-0  76404-3 0  9997,2 49735  53.2177 348.3809 0001156 111.8477 248.2638 15.08848019 96969,6917.856,95.437,540.521,538.921,0.0
49735.0,STARLINK-3113,PAYLOAD,2023-08-28 15:59:57,15.08825656,0.000116,53.2176,347.192,88.3681,271.7444,-9.6315e-05,-1.82e-05,0.0,0 STARLINK-3113,1 49735U 21115M   23240.66664188 -.00001820  00000-0 -96315-4 0  9995,2 49735  53.2176 347.1920 0001160  88.3681 271.7444 15.08825656 97003,6917.924,95.438,540.592,538.987,0.0
49735.0,STARLINK-3113,PAYLOAD,2023-08-29 09:29:12,15.08840554,0.0001135,53.2175,343.9215,90.0589,270.0533,0.00018716,2.692e-05,0.0,0 STARLINK-3113,1 49735U 21115M   23241.39528258  .00002692  00000-0  18716-3 0  9997,2 49735  53.2175 343.9215 0001135  90.0589 270.0533 15.08840554 97119,6917.879,95.438,540.529,538.959,0.0
49735.0,STARLINK-3113,PAYLOAD,2023-08-29 15:50:44,15.08851722,0.0001191,53.2178,342.7325,89.3918,270.721,0.00021636,3.158e-05,0.0,0 STARLINK-3113,1 49735U 21115M   23241.66023627  .00003158  00000-0  21636-3 0  9990,2 49735  53.2178 342.7325 0001191  89.3918 270.7210 15.08851722 97152,6917.845,95.437,540.533,538.886,0.0
49735.0,STARLINK-3113,PAYLOAD,2023-08-30 09:19:59,15.08837022,0.0001274,53.218,339.4624,92.6278,267.486,0.00021094,3.071e-05,0.0,0 STARLINK-3113,1 49735U 21115M   23242.38888555  .00003071  00000-0  21094-3 0  9991,2 49735  53.2180 339.4624 0001274  92.6278 267.4860 15.08837022 97261,6917.889,95.438,540.636,538.873,0.0
49735.0,STARLINK-3113,PAYLOAD,2023-08-30 15:41:31,15.08847815,0.0001324,53.2182,338.2736,94.6863,265.428,0.00031326,4.702e-05,0.0,0 STARLINK-3113,1 49735U 21115M   23242.65384129  .00004702  00000-0  31326-3 0  9990,2 49735  53.2182 338.2736 0001324  94.6863 265.4280 15.08847815 97302,6917.857,95.437,540.637,538.806,0.0
49735.0,STARLINK-3113,PAYLOAD,2023-08-31 06:00:00,15.08843328,0.0001245,53.2172,335.5976,87.5605,272.553,9.1207e-05,1.164e-05,0.0,0 STARLINK-3113,1 49735U 21115M   23243.25000119  .00001164  00000-0  91207-4 0  9995,2 49735  53.2172 335.5976 0001245  87.5605 272.5530 15.08843328 97395,6917.87,95.437,540.596,538.874,0.0
49735.0,STARLINK-3113,PAYLOAD,2023-09-01 12:12:19,15.08846649,0.0001477,53.2174,329.9481,84.5642,275.5518,0.0002185,3.192e-05,0.0,0 STARLINK-3113,1 49735U 21115M   23244.50856139  .00003192  00000-0  21850-3 0  9994,2 49735  53.2174 329.9481 0001477  84.5642 275.5518 15.08846649 97589,6917.86,95.437,540.747,538.703,0.0
49735.0,STARLINK-3113,PAYLOAD,2023-09-01 16:58:28,15.08848869,0.0001429,53.2174,329.0557,86.9055,273.21,0.00025775,3.817e-05,0.0,0 STARLINK-3113,1 49735U 21115M   23244.70728004  .00003817  00000-0  25775-3 0  9999,2 49735  53.2174 329.0557 0001429  86.9055 273.2100 15.08848869 96504,6917.853,95.437,540.707,538.73,0.0
49735.0,STARLINK-3113,PAYLOAD,2023-09-01 23:20:02,15.08834552,0.0001326,53.2155,327.864,75.8018,284.3121,-3.4259e-05,-8.33e-06,0.0,0 STARLINK-3113,1 49735U 21115M   23244.97224822 -.00000833  00000-0 -34259-4 0  9992,2 49735  53.2155 327.8640 0001326  75.8018 284.3121 15.08834552 97651,6917.897,95.438,540.679,538.845,0.0
49735.0,STARLINK-3113,PAYLOAD,2023-09-02 05:41:34,15.0883565,0.0001158,53.2179,326.675,92.1482,267.9642,5.7292e-05,6.24e-06,0.0,0 STARLINK-3113,1 49735U 21115M   23245.23720661  .00000624  00000-0  57292-4 0  9992,2 49735  53.2179 326.6750 0001158  92.1482 267.9642 15.08835650 96582,6917.894,95.438,540.56,538.958,0.0
49735.0,STARLINK-3113,PAYLOAD,2023-09-02 16:49:16,15.08847514,0.0001394,53.217,324.5945,82.3971,277.7179,0.00025877,3.834e-05,0.0,0 STARLINK-3113,1 49735U 21115M   23245.70088286  .00003834  00000-0  25877-3 0  9993,2 49735  53.2170 324.5945 0001394  82.3971 277.7179 15.08847514 97769,6917.857,95.437,540.687,538.758,0.0
49735.0,STARLINK-3113,PAYLOAD,2023-09-03 11:53:53,15.08855479,0.0001318,53.2163,321.0265,84.6055,275.5087,0.00043397,6.628e-05,0.0,0 STARLINK-3113,1 49735U 21115M   23246.49575881  .00006628  00000-0  43397-3 0  9993,2 49735  53.2163 321.0265 0001318  84.6055 275.5087 15.08855479 96775,6917.833,95.437,540.61,538.786,0.0
49735.0,STARLINK-3113,PAYLOAD,2023-09-04 05:23:08,15.0883637,0.0001591,53.2166,317.755,75.4457,284.6712,-7.0625e-06,-4e-06,0.0,0 STARLINK-3113,1 49735U 21115M   23247.22440674 -.00000400  00000-0 -70625-5 0  9996,2 49735  53.2166 317.7550 0001591  75.4457 284.6712 15.08836370 97994,6917.891,95.438,540.857,538.656,0.0
49735.0,STARLINK-3113,PAYLOAD,2023-09-04 11:44:41,15.08831461,0.0001457,53.2163,316.5626,78.1446,281.971,-6.2225e-05,-1.278e-05,0.0,0 STARLINK-3113,1 49735U 21115M   23247.48936943 -.00001278  00000-0 -62225-4 0  9993,2 49735  53.2163 316.5626 0001457  78.1446 281.9710 15.08831461 96927,6917.906,95.438,540.779,538.764,0.0
49735.0,STARLINK-3113,PAYLOAD,2023-09-04 21:17:00,15.08835278,0.0001347,53.2171,314.7807,82.4885,277.626,6.9256e-05,8.14e-06,0.0,0 STARLINK-3113,1 49735U 21115M   23247.88681050  .00000814  00000-0  69256-4 0  9997,2 49735  53.2171 314.7807 0001347  82.4885 277.6260 15.08835278 96988,6917.895,95.438,540.692,538.828,0.0
49735.0,STARLINK-3113,PAYLOAD,2023-09-05 21:07:47,15.08844306,0.0001252,53.2167,310.3207,88.7306,271.3829,0.00024957,3.687e-05,0.0,0 STARLINK-3113,1 49735U 21115M   23248.88040929  .00003687  00000-0  24957-3 0  9991,2 49735  53.2167 310.3207 0001252  88.7306 271.3829 15.08844306 98246,6917.867,95.437,540.598,538.866,0.0
49735.0,STARLINK-3113,PAYLOAD,2023-09-06 13:01:38,15.08844815,0.000122,53.2161,307.3465,87.3302,272.783,0.00023824,3.506e-05,0.0,0 STARLINK-3113,1 49735U 21115M   23249.54280944  .00003506  00000-0  23824-3 0  9990,2 49735  53.2161 307.3465 0001220  87.3302 272.7830 15.08844815 97238,6917.866,95.437,540.575,538.887,0.0
49735.0,STARLINK-3113,PAYLOAD,2023-09-06 20:58:34,15.08839196,0.000151,53.216,305.8595,83.5894,276.5271,8.7908e-05,1.111e-05,0.0,0 STARLINK-3113,1 49735U 21115M   23249.87401254  .00001111  00000-0  87908-4 0  9999,2 49735  53.2160 305.8595 0001510  83.5894 276.5271 15.08839196 97282,6917.883,95.438,540.792,538.703,0.0
